GPS BIIR-2  (PRN 13)    
1 24876U 97035A   21255.65296294  .00000001  00000-0  00000-0 0  9990
2 24876  55.4781 166.5117 0052270  53.7636 306.7575  2.00562309176882
GPS BIIR-4  (PRN 20)    
1 26360U 00025A   21255.79714355 -.00000006  00000-0  00000-0 0  9997
2 26360  53.8388  90.3587 0055029 173.1692  18.1069  2.00565722156394
GPS BIIR-8  (PRN 16)    
1 27663U 03005A   21254.56622028  .00000018  00000-0  00000-0 0  9996
2 27663  55.7106 284.1265 0120559  38.0416 323.4097  2.00554084136424
GPS BIIR-9  (PRN 21)    
1 27704U 03010A   21255.25603623 -.00000058  00000-0  00000-0 0  9990
2 27704  54.9044  34.5904 0242475 297.4396  57.9692  2.00567189135226
GPS BIIR-10 (PRN 22)    
1 28129U 03058A   21255.34436937 -.00000004  00000-0  00000-0 0  9997
2 28129  53.6489  93.0219 0069290 307.5011  51.9373  2.00555722129914
GPS BIIR-11 (PRN 19)    
1 28190U 04009A   21255.42060780 -.00000081  00000-0  00000-0 0  9995
2 28190  56.1473 345.0006 0089285 111.5771 306.7477  2.00566534128074
GPS BIIR-13 (PRN 02)    
1 28474U 04045A   21255.45042663 -.00000058  00000-0  00000-0 0  9997
2 28474  55.2372  34.6182 0204901 274.2346  77.6812  2.00554274123555
GPS BIIRM-1 (PRN 17)    
1 28874U 05038A   21255.32178358 -.00000079  00000-0  00000-0 0  9994
2 28874  56.2260 342.4241 0137892 270.7445  99.9090  2.00565412116965
GPS BIIRM-2 (PRN 31)    
1 29486U 06042A   21255.75452185  .00000052  00000-0  00000-0 0  9990
2 29486  54.7578 220.3250 0101130  15.5527 221.4272  2.00570967109525
GPS BIIRM-3 (PRN 12)    
1 29601U 06052A   21255.37421207  .00000022  00000-0  00000-0 0  9996
2 29601  55.7093 283.0229 0080139  69.8937 291.0157  2.00562684108533
GPS BIIRM-4 (PRN 15)    
1 32260U 07047A   21254.67991143  .00000006  00000-0  00000-0 0  9991
2 32260  53.2468 152.0976 0134389  58.1971 303.1689  2.00562812101921
GPS BIIRM-5 (PRN 29)    
1 32384U 07062A   21254.86186205 -.00000077  00000-0  00000-0 0  9990
2 32384  56.3365 343.1684 0017904 138.7915 121.6329  2.00574750100627
GPS BIIRM-6 (PRN 07)    
1 32711U 08012A   21255.59412030  .00000052  00000-0  00000-0 0  9991
2 32711  54.5122 219.3299 0154521 228.3910 130.2583  2.00555579 98886
GPS BIIRM-8 (PRN 05)    
1 35752U 09043A   21255.78730024 -.00000001  00000-0  00000-0 0  9996
2 35752  54.8661  96.7268 0059020  55.3700  96.4432  2.00573784 88491
GPS BIIF-1  (PRN 25)    
1 36585U 10022A   21255.90408622  .00000030  00000-0  00000-0 0  9991
2 36585  54.9857 278.7142 0096708  54.6723 304.5062  2.00575123 82729
GPS BIIF-2  (PRN 01)    
1 37753U 11036A   21255.79270896 -.00000049  00000-0  00000-0 0  9993
2 37753  56.4682  39.5339 0109015  50.1365 310.0790  2.00563618 74402
GPS BIIF-3  (PRN 24)    
1 38833U 12053A   21255.27631857  .00000048  00000-0  00000-0 0  9992
2 38833  53.5630 214.7540 0113901  42.4549 318.4010  2.00558311 64568
GPS BIIF-4  (PRN 27)    
1 39166U 13023A   21255.14043738 -.00000076  00000-0  00000-0 0  9993
2 39166  55.8653 338.9118 0093562  35.3174 325.3479  2.00567405 61009
GPS BIIF-5  (PRN 30)    
1 39533U 14008A   21255.13984664  .00000052  00000-0  00000-0 0  9999
2 39533  53.6641 220.2378 0054589 205.6756 154.0341  2.00565773 54806
GPS BIIF-6  (PRN 06)    
1 39741U 14026A   21254.91957351 -.00000048  00000-0  00000-0 0  9994
2 39741  56.4342  39.0950 0023651 299.1740  60.5979  2.00575616 53652
GPS BIIF-7  (PRN 09)    
1 40105U 14045A   21255.50757630 -.00000002  00000-0  00000-0 0  9995
2 40105  54.6375 157.9031 0019227 105.4207 254.8449  2.00558781 51208
GPS BIIF-8  (PRN 03)    
1 40294U 14068A   21255.37558931  .00000002  00000-0  00000-0 0  9996
2 40294  55.6121  98.9375 0036773  53.8097 306.6040  2.00551947 50333
GPS BIIF-9  (PRN 26)    
1 40534U 15013A   21254.01843651  .00000025  00000-0  00000+0 0  9994
2 40534  53.8920 276.2662 0060260  14.6662 345.5482  2.00569330 47353
GPS BIIF-10 (PRN 08)    
1 40730U 15033A   21255.67386673 -.00000078  00000-0  00000-0 0  9993
2 40730  55.3705 337.8511 0064606   1.1357 358.9283  2.00566415 45127
GPS BIIF-11 (PRN 10)    
1 41019U 15062A   21255.22564706  .00000002  00000-0  00000-0 0  9998
2 41019  55.6037  98.7807 0070426 213.3878 146.2392  2.00563314 42954
GPS BIIF-12 (PRN 32)    
1 41328U 16007A   21255.81574516 -.00000006  00000-0  00000-0 0  9991
2 41328  54.8624 158.4927 0052515 225.7572 133.8618  2.00558268 40979
GPS BIII-1  (PRN 04)    
1 43873U 18109A   21255.88831469 -.00000006  00000-0  00000-0 0  9993
2 43873  55.0435 160.8502 0014188 194.2923 110.4850  2.00560434 20200
GPS BIII-2  (PRN 18)    
1 44506U 19056A   21255.70246642 -.00000050  00000-0  00000-0 0  9992
2 44506  55.5363  40.1175 0018972 175.5232 255.8834  2.00566565 15206
GPS BIII-3  (PRN 23)    
1 45854U 20041A   21255.74514279  .00000000  00000-0  00000-0 0  9997
2 45854  55.3187  97.3820 0015801 161.0984 243.5815  2.00563724  9174
GPS BIII-4  (PRN 14)    
1 46826U 20078A   21255.47129367  .00000023  00000-0  00000-0 0  9992
2 46826  54.7608 281.3666 0010997 190.3999 345.5836  2.00566432  6633
